Station name,Location,Island,Zip Code,Charge Fee,Park Fee,Parking Lot,Hours,Ports,Restrictions,Number of Stations,Charge Fees,Manufacturers,Charging Levels,Location Address,,,
Hale Pauahi Parking Structure,Entrance on Beretania Street.  Follow blue signs to Charger.,Oahu,96817,Free,Free for EV Drivers,Hale Pauahi Parking Structure,6:00am-12:00am,1,Activate Charger with ChargePoint Network card or call the number listed on the front of the Charger for access.  Parking fees may apply.,1,Free,ChargePoint,2,"155 N Beretania St.
Honolulu, HI 96817
(21.3135816000, -157.8616886000)",,,
Hapuna Beach Prince Hotel,Valet,Hawaii,96743,TBD,"Free Validated parking, $15/Day Self Park overnight, $20/Day Valet overnight.",Hapuna Beach Prince Hotel,24/7,4, 4 hour limit on EV charging.  Parking fees may apply.,2,Free,OpConnect,2,"62-100 Kauna&rsquo;oa Dr.
Kamuela, HI 96743
(20.0390812000, -155.7134009000)",,,
Hilo International Airport,In parking lot close to terminal entrance,Hawaii,96720,Free,"24 hours $10.  16-30 minutes is $1, 31 minutes- 60 minutes $2, 61 minutes-2 hours $5, 2 hours-3 hours $8.",Hilo International Airport,5:00am - 10:00pm,2,No overnight parking at EV Charger.  Parking fees may apply.,2,Free,Recharge Power,2,"2450 Kekuanaoa St, Suite 215
Hilo, HI 96720
(19.7116702000, -155.0752320000)",,,
University of Hawaii at Hilo,Attached to lifescience building 3344,Hawaii,96720,Free,Free for EV Drivers while Charging.,University of Hawaii at Hilo,24/7,1,Free parking EV Drivers while charging.,1,Free,Legrand,2,"200 W. Kawaili Street
Hilo, HI 96720
(19.6991896000, -155.0804486000)",,,
Hilton Waikaloa,Valet,Hawaii,96738,TBD,"$15/Day Self Park, $20/Day Valet",Hilton Waikaloa,24/7,8,Valet needs to swipe card to activate Charger.   4 hour limit on EV charging.  Parking fees may apply.,4,Free,OpConnect,2,"69-425 Waikoloa Beach Dr.
Waikoloa, HI 96738
(19.9258950000, -155.8837629000)",,,
Kona Commons Shopping Center,On side of Sports Authority,Hawaii,96740,TBD,Free,Kona Commons Shopping Center,8:00am-10:00pm,4,  FOB key required to activate charging station. 4 hour limit.  Parking fees may apply.,2,Free,OpConnect,2,"74-5450 Makala Blvd
Kailua-Kona, HI 96740
(19.6494936000, -156.0049149000)",,,
Kona International Airport at Keahole,1st floor of parking structure across from entrance gate,Hawaii,96740,"Free until further notice, anticipated charging fee: $7/session","24 hours $10.  16-30 minutes is $1, 31 minutes- 60 minutes $2, 61 minutes-2 hours $5, 2 hours-3 hours $8.",Kona International Airport at Keahole,24/7,2,No overnight parking at EV Charger. Parking rates may apply. ,2,Free,Recharge Power,2,"73-200 Kupipi street
Kailua-Kona, HI 96740
(19.7393796000, -156.0410098000)",,,
Mauna Kea Beach Resort,"South end of the parking lot, near the Valet area",Hawaii,96743,TBD,"Free Self-Park and Valet during the day,  Registered Guests  have a $20/night parking fee.",Mauna Kea Beach Resort,24/7,4,4 hour limit.  EV driver needs to pick up a key from the office at the first right after entering parking. Parking rates may apply. ,2,Free,OpConnect,2,"62-100 Mauna Kea Beach
Kohala Coast, HI 96743
(20.0390812000, -155.7134009000)",,,
National Car Rental Kona Airport,"Outside parking, side of the building",Hawaii,96740,TBD,"24 hours $10.  16-30 minutes is $1, 31 minutes- 60 minutes $2, 61 minutes-2 hours $5, 2 hours-3 hours $8.",National Car Rental Kona Airport,5:30am-11:30pm,2,  FOB key required to activate charging station. 4 hour limit. Parking rates may apply. ,1,Free,OpConnect,2,"Keahole International Airport
Kailua-Kona, HI 96740
(19.7367705000, -156.0397822000)",,,
West Hawaii Civic Center,1st floor of parking structure in covered structure,Hawaii,96740,TBD,Free,West Hawaii Civic Center,7:45am-4:30pm Close first Fri of month and County observed holidays,6, 4 hour limit. Parking fees may apply.,3,Free,OpConnect,2,"74-5044 Ane Keohokalole Hwy
Kailua-Kona, HI 96740
(19.6737151000, -156.0038955000)",,,
Grand Hyatt Kauai,In the corner of the guest parking closest to the hotel there are 2 spaces at the level 2 Charger reserved for Eves and 4 spaces at the level 3 Charger reserved for EVs,Kauai,96756,Free,"$25/day for overnight guests, additional $10 for Valet.",Grand Hyatt Kauai,24/7,2,Green Car rents out electric and hybrid vehicles from the hotel.  Registered Guests with EVs can also charge.  Parking fees may apply.,2,Free,AeroVironment,2,"1571 Poipu Rd.
Koloa, HI 96756
(21.8773842000, -159.4400527000)",,,
Chinatown Gateway Plaza Parking Structure,Entrance to parking structure is located on Bethel Street.  Follow blue signs to Charger.,Oahu,96817,Free,Free for EV Drivers,Chinatown Gateway Plaza Parking Structure,6:00am-12:00am,1,Activate Charger with ChargePoint Network card or call the number listed on the front of the C1harger for access.  Parking fees may apply.,1,Free,ChargePoint,2,"1031 Nuuanu Ave
Honolulu, HI 96817
(21.3105430000, -157.8622480000)",,,
Four Seasons Resort Hualalai,"Chargers are located in the Golf Crescent self-park lot, but EV drivers must Valetto utilize Charger",Hawaii,96740,TBD,"Free Self-Park and Valet during the day,  Registered Guests have a $20/night parking fee.",Four Seasons Resort Hualalai,24/7,2,"Priority is for Registered Guests, but restaurant guests are welcome to charge at no cost.  4 hour limit on EV charging.  Parking fees may apply.",2,Free,OpConnect,2,"72-100 Kaupulehu Dr.
Kailua-Kona, HI 96740
(19.8271119000, -155.9913758000)",,,
Hilton Waikiki Beach,Valet,Oahu,96815,Free,"$25.00 valet services, $15.00 for functions, $3.00 with validation",Hilton Waikiki Beach,24/7,2,Parking fees may apply.,2,Free,AeroVironment,2,"2500 Kuhio Ave
Honolulu, HI 96815
(21.2752460000, -157.8218630000)",,,
Kaiser Permanente Honolulu Clinic,EV Charging Stations are located on the 3rd Floor,Oahu,96797,Free,First 3 Hours Free.  Next 3 hours/$1.00.  $0.50cents/ 3o minutes thereafter,Kaiser Permanente Honolulu Clinic,24/7,6,Parking fees may apply.,6,Free,Volta,2,"1010 Pensacola St
Honolulu, HI 96797
(21.3011000000, -157.8461500000)",,,
Wyndham Waikiki Beachwalk Hotel,Valet,Oahu,96815,Free,"Overnight packages include parking. $20.00/day without package. $35.00 for valet services. Visitors day $3.00/20mins $20.94 Overnight. $10.00/half hour. Validations offered from facilities within hotel $4.00/half hour, $6.00 Early-bird special (6am-9am, $11.00 regular flat rate (5pm), Validations offered within the building  Free",Wyndham Waikiki Beachwalk Hotel,24/7,1,Parking fees may apply.,1,Free,AeroVironment,3,"227 Lewers Street
Honolulu, HI 96815
(21.2791427000, -157.8309897000)",,,
Kamehameha Shopping Center,Infront of Longs Drugs,Oahu,96817,Free,Free,Kamehameha Shopping Center,7:00am to 7:00pm,1,2 Hour limit on EV charging,1,Free,Volta,2,"1620 School Street
Honolulu, HI 96817
(21.3363680000, -157.8690949000)",,,
Ko'olina,N/A,Oahu,96707,Free,parking rates may apply ,Ko'olina,24/7,1,Parking rates may apply ,1,Free,ChargePoint,2,"92-149 Waipahe Place
Kapolei, HI 96707
(21.3311400000, -158.1215420000)",,,
Maui Ocean Club,Parking lot,Maui,96761,,,Maui Ocean Club,24/7,1,Parking fees may apply.,1,Free,ChargePoint,2,"100 Nohea Kai Dr.
Lahaina, HI 96761
(20.9158440000, -156.6952920000)",,,
Ward Warehouse,EV Stations located on ground level of TJ Maxx parking structure,Oahu,96814,,Free,Ward Warehouse,Mon-Sun 9:00am-9:30pm,2,Parking rates may apply ,2,Free,Volta,2,"1170 Auahi Street
Honolulu, HI 96814
(21.2935300000, -157.8511680000)",,,
Dole Cannery ,1 Station on the 2nd level of parking structure,Oahu,96817,,Free,Dole Cannery ,7:00am-10:00pm,1,Parking rates may apply. ,1,Free,Volta,2,"753 Iwilei Road
Honolulu, HI 96817
(21.3158788000, -157.8688918000)",,,
Koko Marina Shopping Center ,"On the floor level, outside of Aloha Pacific Credit Union",Oahu,96825,Free,Free parking during the day.  $10/Night for Registered Guests.,Koko Marina Shopping Center ,9:00am-9:00pm,1,Parking rates may apply.,1,Free,Volta,2,"7192 Kalanianaole Hwy
Honolulu, HI 96825
(21.2778781000, -157.7056172000)",,,
Westin Maui Resort & Spa,In valet lot near the desk.,Maui,96761,TBD,,Westin Maui Resort & Spa,24/7,2,Parking fees may apply.  ,1,Free,OpConnect,2,"2365 Kaanapali Pkwy, Maui, HI 96761
Lahaina, HI 96761
(20.9198560000, -156.6950440000)",,,
Nissan,One charger is mounted on the wall to the left of the entrance.  A second charger is available inside the store.,Kauai,96766,,,Nissan,"Mon-Fri 8:00am-6:00pm, Sat 9:00am-5:00pm",2,Parking fees may apply.,2,Free,AeroVironment,2,"3039 Aukele Street
Lihue, HI 96766
(21.9680540000, -159.3569420000)",,,
Waikoloa Marriott,"Chargers are located in the parking lot on the east side of the tennis courts.  Drive to the end of the lot (it's a one way road) and make a U-turn, and the chargers are in a small parking lot on the right.",Hawaii,96738,,,Waikoloa Marriott,24/7,4,Restricted to registered Guests.  Parking fees may apply.  EV drivers need to retrieve FOB key from Security at the bell desk.,2,Free,AeroVironment,2,"69-275 Waikoloa Beach Drive
Waikoloa, HI 96738
(19.9165819000, -155.8847710000)",,,
Tony Nissan,Enter dealer from Moaniani St.  ,Oahu,96797,,,Tony Nissan, 7:00am to 8:00pm,2,Parking fees may apply.  Restricted to Leafs only.,2,Free,AeroVironment,2,"94-1299 Ka Uka Boulevard
Waipahu, HI 96797
(21.4276930000, -157.9978350000)",,,
Marriott's Waiohai Beach Club,First 3 stalls as you enter parking garage,Kauai,96756,,,Marriott's Waiohai Beach Club,24/7,3,Parking fees may apply.  Restricted to registered guests and their visitors.  Parking garage requires key card,3,Free,AeroVironment,2,"2249 Poipu Rd
Koloa, HI 96756
(21.8750600000, -159.4567680000)",,,
Fairmont Orchid,"Guest parking lot, right side.",Hawaii,96743,,,Fairmont Orchid,24/7,2,Parking fees may apply.,2,Free,AeroVironment,2,"1 N Kaniku Dr
Kamuela, HI 96743
(19.9512040000, -155.8602910000)",,,
Enterprise Rent A Car,Parking lot.,Kauai,96766,,,Enterprise Rent A Car,7:00am-10:45pm,2,Restricted to Customers only.,2,Free,AeroVironment,2,"3073 Aukele ST
Lihue, HI 96766
(21.9690800000, -159.3557760000)",,,
Ko'olina ,Parking lot ,Oahu,96707,,Parking rates may apply ,Ko'olina ,24/7,1,Parking rates may apply ,1,Free,ChargePoint,2,"92-149 Waipahe Pl, Kapolei, Hawaii, 96707, United States
Kapolei, HI 96707
(21.3311400000, -158.1215420000)",,,
Grand Hyatt Kauai,In the corner of the guest parking closest to the hotel there are 2 spaces at the level 2 Charger reserved for Eves and 4 spaces at the level 3 Charger reserved for EVs,Kauai,96756,Free,"$25/day for overnight guests, additional $10 for Valet.",Grand Hyatt Kauai,24/7,2,Green Car rents out electric and hybrid vehicles from the hotel.  Registered Guests with EVs can also charge.  Parking fees may apply.,2,Free,AeroVironment,3,"1571 Poipu Rd.
Koloa, HI 96756
(21.8773842000, -159.4400527000)",,,
"County Building, Wailuku","Directly in front of County Building, outdoor lot. Spot is painted green, sign for Eves.",Maui,96793,"There is a $20 deposit for key to activate Charger, pick up at the Maui County Business Resource Center.  Deposit will be returned when key is returned.",Free for EV Drivers,"County Building, Wailuku",24/7,2,Maui County YouTube video on how to use level 3 Charger http://www.youtube.com/watch?v=Aj_2zcCSUQg.  $20 deposit required to activate charging station.  Parking fees may apply.,2,Free,AeroVironment,3,"200 South High Street
Wailuku, HI 96793
(20.8853200000, -156.5040450000)",,,
Waianae Mall Shopping Center,Chargers are located next to each other in front of the 24 hour landraumat,Oahu,96792,Free,Parking fees may apply,Waianae Mall Shopping Center,24/7,2,The security guard that walks around the lot 24/7 needs to activate the charger for use. ,2,Free,AeroVironment,2,"86-120 Farrington Hwy
Waianae, HI 96792
(21.4371200000, -158.1856800000)",,,
Aina Haina Shopping Center,Charger is located in the parking lot.,Oahu,96821,Free,Parking fees may apply,Aina Haina Shopping Center,24/7,2,FOB is required to use charging station,1,Free,OpConnect,2,"820-850 W Hind Drive
Honolulu, HI 96821
(21.2781900000, -157.7547600000)",,,
Kukui Grove Center ,"One charging station is next to Starbucks, and one station is next to Payless Shoes",Kauai,96766,,Free,Kukui Grove Center ,24/7,2,To operate the charging station users must contact the Security Officer on duty by dialing the phone number listed on the charging station ,2,Free,AeroVironment,2,"3-2600 Kaumualii Hwy
Lihue, HI 96766
(21.9695500000, -159.3779700000)",,,
Hilo Home Depot,"Charger is located near the main entrance, close to the lumber area. ",Hawaii,96720,Free,Free,Hilo Home Depot,24/7,2,,1,Free,Schneider Electric,2,"380 Makaala St
Hilo, HI 96720
(19.6983200000, -155.0590900000)",,,
Wilcox Memorial Hospital,One is next to hospital and one is next to clinic,Kauai,96766,Free,Free,Wilcox Memorial Hospital,8am-8pm,4,,2,Free,Pep Stations,2,"3420 Kuhio Hwy
Lihue, HI 96766
(21.9857800000, -159.3626800000)",,,
Ko'olina ,Parking lot ,Oahu,96707,,Parking rates may apply ,Ko'olina ,24/7,1,Parking rates may apply ,1,Free,ChargePoint,2,"92-159 Waipahe Place
Kapolei, HI 96707
(21.3316700000, -158.1193280000)",,,
Aiea Shopping Center ,"Second level, near  Angel's Nail Smart",Oahu,96701,,,Aiea Shopping Center ,24/7,1,3 hour max time allowed to charge. For on site Aiea Shopping Center guests only. Drivers who leave the shopping center while EV is charging will be towed. ,1,Free,SemaConnect,2,"99-115 Aiea Heights Dr #228
Aiea, HI 96701
(21.3787500000, -157.9297400000)",,,
Home Depot,In Home Depot Parking Lot,Oahu,96707,N,,Home Depot,Mon-Fri 24/7 Sat-Sun 6am-10pm,3,,2,Free,Schneider Electric,2,"4600 Kapolei Pkwy
Kapolei, HI 96707
(21.3292100000, -158.0886300000)",,,
T.J. Maxx,T.J. Maxx second floor parking lot,Oahu,96814,,Free,T.J. Maxx,8am-10pm,2,Charing is limited to 3 hours.  Please respect those who would also like to utilize fee service.,2,Free,Volta,2,"1170 Auahi St
Honolulu, HI 96814
(21.2935300000, -157.8511700000)",,,
Kauai Marriott Resort & Beach Club,"Charging station is located on the Kalapaki Cir. side of the hotel, near the Ha'upu Tower, close to handicap stalls",Kauai,96766,Free,"Free parking during the day, Registered Guests have a $16-$19/night parking fee.",Kauai Marriott Resort & Beach Club,24/7,2,Charger use restricted to hotel guests.  Vehicle must be registered at front desk and they will provide a key to activate the Charger. Parking rates may apply ,1,Free,AeroVironment,2,"3610 Rice Street
Lihue, HI 96766
(21.9613990000, -159.3497130000)",,,
Marriott Waiohai Beach Club,Green Car service,Kauai,96756,Free,Free parking during the day.  $10/Night for Registered Guests.,Marriott Waiohai Beach Club,24/7,2,Green Car rents out electric and hybrid vehicles from the hotel.  Registered Guests with EVs can also charge. Parking rates may apply ,2,Free,AeroVironment,2,"2249 Poipu Road
Koloa, HI 96756
(21.8750600000, -159.4567700000)",,,
Princeville Shopping Center,"Rear parking lot, next to public restrooms",Kauai,96722,Free,Free,Princeville Shopping Center,24/7,2,Parking fees may apply,2,Free,Volta,2,"5-4280 Kuhio Highway
Princeville, HI 96722
(22.2135956000, -159.4743178000)",,,
Sheraton Kauai,Attached to the shack near the luau lawn,Kauai,96756,TBD,Free for Day Guests.  $30/night for Registered Guests.,Sheraton Kauai,24/7,3,  FOB key required to activate charging station. 4 hour limit.  Parking fees may apply.,3,Free,OpConnect,2,"2440 Hoonani Rd.
Koloa, HI 96756
(21.8773060000, -159.4622110000)",,,
Westin Princeville Resort,Valet,Kauai,96722,TBD,Free for Day Guests.  $9/night Registered Guests.,Westin Princeville Resort,24/7,4,EV Drivers need to use Valet to Charge.  4 hour limit on EV charging.  Parking fees may apply.,2,Free,OpConnect,2,"3838 Wylie Rd
Princeville, HI 96722
(22.2215879000, -159.4686392000)",,,
Bio-Beetle ECO Rental Cars,By appointment and for Bio-Beetle customers only.,Maui,96732,Free,Free,Bio-Beetle ECO Rental Cars,By appointment and for Bio-Beetle customers only.,1,"Allowing customers to plug in their own Level 1 Charger to outlet,  private to customers by appointment.  ",1,Free,Bring your own cordset/Level 1 Charger,1,"55 Amala Place
Kahului, HI 96732
(20.8949605000, -156.4605913000)",,,
"County Building, Wailuku","Directly in front of County Building, outdoor lot. Spot is painted green, sign for Eves.",Maui,96793,"There is a $20 deposit for key to activate Charger, pick up at the Maui County Business Resource Center.  Deposit will be returned when key is returned.",Free for EV Drivers,"County Building, Wailuku",24/7,2,Maui County YouTube video on how to use level 3 Charger http://www.youtube.com/watch?v=Aj_2zcCSUQg.  $20 deposit required to activate charging station.  Parking fees may apply.,2,Free,AeroVironment,2,"200 south High Street
Wailuku, HI 96793
(20.8853200000, -156.5040450000)",,,
Enterprise Rent A Car,Across the Hana Hwy from the Mercedes dealership. Access from the Hana Hwy. Since this is a rental car location access to the one charge port is by availability only. This charge spot is next to Maui Mall,Maui,96732,Free,Free,Enterprise Rent A Car,7:00am-5:00pm,1,Restricted to customers,1,Free,AeroVironment,2,"40 Hana Hwy
Kahului, HI 96732
(20.8917119000, -156.4629880000)",,,
Four Seasons Maui (Wailea),"Self-park at spaces 167 and 169 (at end of row on left) in Valet/Self Park garage. Move the cone that’s there to prevent non-EV parking. Hint: Valet atHotel Wailea will drive you to/from Four Seasons garage for tip, other hotel valets may if you ask.",Maui,96753,TBD,"Free for day guests, $20/day for overnight guests",Four Seasons Maui (Wailea),24/7,2,"Valet recommended, self-parking needs FOB key from front desk.   4 hour limit on EV Charging. Parking fees may apply.",1,Free,OpConnect,2,"3900 Wailea Alanui
Wailea, HI 96753
(20.6802398000, -156.4424600000)",,,
Jim Falk  Motors of Maui,Charging Station is in the front of the lot.,Maui,96732,Free,Free,Jim Falk  Motors of Maui,7:30am-8:00pm,3,Restricted to Customers only.,3,Free,AeroVironment,2,"260 Hana Hwy
Kahului, HI 96732
(20.8884180000, -156.4584230000)",,,
Kahana Gateway,Charge spots located in the rear of the shopping center underneath the building down from the Shell Station and Kahana Koin-Op.,Maui,96761,TBD,Free,Kahana Gateway,24/7,2,   FOB key required to activate charging station. 4 hour limit.  Parking fees may apply.,2,Free,OpConnect,2,"4405 Honoapiilani Hwy
Kahana, HI 96761
(20.9721490000, -156.6773340000)",,,
Ace Hardware,In front of Panda Express,Oahu,96707,Free,Free,Ace Hardware,"Mon-Sat 7:00am-7:00pm, Sun 8:00am-6:00pm",1,Parking fees may apply,1,Free,AeroVironment,2,"480 Kamokila
Kapolei, HI 96707
(21.3285117000, -158.0865653000)",,,
Kihei Town Center,"In front of “Happy Nails” between Sansei and Cuatro Restaurants, near Police Station & Rainbow Attic at 24/7 Kihei Foodland",Maui,96753, 4 hours at a time,Free,Kihei Town Center,24/7,2,  FOB key required to activate charging station. 4 hour limit. Parking rates may apply. ,2,Free,OpConnect,2,"1881 S Kihei Rd
Kihei, HI 96753
(20.7322086000, -156.4524619000)",,,
Marriott Maui Ocean Club,Located in the Valet station,Maui,96761,Free,"$14/Day for Self-Park, $16/Day Valet",Marriott Maui Ocean Club,24/7,1,Parking rates may apply,1,Free,ChargePoint,2,"100 Nohea Kai Drive
Lahaina, HI 96761
(20.9158440000, -156.6952920000)",,,
Marriot Wailea Beach,Valet recommended,Maui,96753,"Free, TBD","Free for Restaurant Guests with Validation.  $30/Day Self-Park, additional $30/Day to Valet",Marriot Wailea Beach,24/7,2,Valet recommended.  Self-parking needs FOB key from front desk. Parking rates may apply ,2,Free,AeroVironment,2,"3700 Wailea Alanui Dr.
Wailea, HI 96753
(20.6879450000, -156.4433050000)",,,
Maui Beach Hotel,Ask Front Desk at Check In,Maui,96732,Free,Free,Maui Beach Hotel,24/7,1,Restricted to Hotel Guests. Parking rates may apply ,1,Free,Bring your own cordset/Level 1 Charger,1,"170 Kaahumanu Avenue
Kahului, HI 96732
(20.8901850000, -156.4710590000)",,,
Ritz Carlton Kapaalua,"Outdoor parking lot close to entrance for employees, EV station labeled, where buses and big vehicles parked",Maui,96761,"Free until further notice,  fee amount TBD","Free for Day Guests.  $10/Night Self-Park, $18/Night Valet for Registered Guests",Ritz Carlton Kapaalua,24/7,2,Parking rates may apply ,2,Free,Pep Stations,2,"1 Ritz-Carlton Drive
Kapalua, HI 96761
(20.9998264000, -156.6551531000)",,,
Sheraton Maui,On 2nd floor of parking garage.,Maui,96761,TBD,$1 for 3 hours with Validation from Restaurant if you spend $20 or more.  $30/Day for Registered Guests,Sheraton Maui,24/7,2,4 hour limit.  Need FOB key from front desk to activate charger.  Parking fees may apply.,1,Free,OpConnect,2,"2605 Ka&rsquo;anapali Parkway
Lahaina, HI 96761
(20.9268220000, -156.6951250000)",,,
Wailea Beach  Marriott,"One in valet, one is in paid parking both on first floor adjacent to lobby.",Maui,96753,Free ,"$25 Self Park, $30 Valet, $30/Day Resort fee includes parking for Registered Guests",Wailea Beach  Marriott,24/7,2,Need FOB key to activate Charging Station in self-parking.  Parking fees may apply.,1,Free,AeroVironment,2,"3700 Wailea Alanui
Wailea, HI 96753
(20.6879450000, -156.4433050000)",,,
Westin Kaanapali Resort and Spa,Ground level of parking lot,Maui,96761,TBD,"Valet Free for Day Guests with Validation, $18/Day without Validation. Self-Parking restricted to Registered Guests and included in resort fee.",Westin Kaanapali Resort and Spa,24/7,4,4 hour limit. Parking fees may apply.,2,Free,OpConnect,2,"2365 Ka&rsquo;anapali Parkway
Lahaina, HI 96761
(20.8783333000, -156.6825000000)",,,
Ala Moana Center,2 Charging stations are located in front of Genki Sushi. Take the Keeaumoku entrance up the ramp and turn right. Charging stations will be on the right. 2 Chargers ground level right below. Volta charger on the 2nd level by Keeaumoku entrance to mall.,Oahu,96814,TBD,Free,Ala Moana Center,"Mall hours, 7:00am-9:30pm",9,Volta chargers are free.  4 hour limit on EV charging.  Parking fees may apply.,5,Free,"OpConnect, Volta",2,"1450 Ala Moana Blvd
Honolulu, HI 96814
(21.2912881000, -157.8429647000)",,,
Aloha Stadium,"Enter the main salt lake gate 1, turn right at sections 3D and 4D, make a right turn at 2A and proceed to park in the marked stall",Oahu,96815,TBD,Varies by event.,Aloha Stadium,6:00am-12:00am,2,  FOB key required to activate charging station.   4 hour limit on EV charging.  Parking fees may apply.,1,Free,OpConnect,2,"Salt Lake Blvd
Honolulu, HI 96815
(21.3658433000, -157.9291369000)",,,
Hawaii Prince Hotel,In level E of the parking garage,Oahu,96815,TBD,"$5.00/hour for visitors.  $17/day for registered guests, $23.00/day valet services. Validations offered by restaurants within hotel",Hawaii Prince Hotel,24/7,4,    FOB key required to activate charging station.4 hour limit on EV charging.  Parking fees may apply.,4,Free,OpConnect,2,"100 Holomoana St.
Honolulu, HI 96815
(21.2865150000, -157.8402110000)",,,
"Aulani A Disney Resort and Spa, Ko Olina","Parking Garage 1, closest stalls to the elevator on two floors.  12 Charging stations; Spaces 250-254, 393-397, and 498-499.  Parking Garage 2, see Valet Attendant for access. 22 Charging stations; spaces 001-009, 096-100, 019-022, 196-197, 217-218 ",Oahu,96707,Free,"Free parking (4 hour max) for guests spending more than $35.00 at the restaurant, hourly rate: 1st half hour free, 2nd $10.00, $5.00 thereafter with a max fee of $35.00","Aulani A Disney Resort and Spa, Ko Olina",24/7,34,Free parking (4 hours max) with restaurant purchase of $35 or more.  Other parking fees may apply.,34,Free,ChargePoint,2,"92-1185 Aliinui Drive
Kapolei, HI 96707
(21.3396140000, -158.1232650000)",,,
Best Western Plaza Hotel,Self-parking next to security as soon as you enter,Oahu,96819,Free,"$25/day for registered guests, $12/day for registered guests that are HI residents.  Free parking for the visitors of registered guests.",Best Western Plaza Hotel,24/7,2,Restricted to registered guests and their visitors.  Retrieve a FOB key from the front desk to activate charging station.  Parking fees may apply.,2,Free,AeroVironment,2,"3253 N. Nimitz Highway
Honolulu, HI 96819
(21.3364879000, -157.9131399000)",,,
Bishop Museum,Located in the rear parking area,Oahu,96817,TBD,Free,Bishop Museum,Wed-Mon 9:00am-5:00pm,4,  FOB key required to activate charging station. 4 hour limit on EV charging.  Parking fees may apply.,4,Free,OpConnect,2,"1525 Bernice St.
Honolulu, HI 96817
(21.3331678000, -157.8693335000)",,,
Central Pacific Plaza,On 2nd Floor of parking garage,Oahu,96813,TBD,Hourly maximum rate of $42.00,Central Pacific Plaza,"Mon-Fri 7:00am-7:00pm, Sat 7:00am-3:00pm, Sun closed",2,    FOB key required to activate charging station. 4 hour limit on EV charging.  Parking fees may apply.,2,Free,OpConnect,2,"220 S. King St
Honolulu, HI 96813
(21.3078120000, -157.8605480000)",,,
Davies Pacific Center,6th floor,Oahu,96813,"1st 2 hours free, $5 every additional hour","15-30 minutes $4, each additional 30 minutes is $4",Davies Pacific Center,24/7,1,"1st 2 hours of charging free, $5 every additional hour.  Use your smart phone to charge by credit card at the Charger, instructions on the screen. Parking fees may apply.",1,Free,SemaConnect,2,"841 Bishop Street
Honolulu, HI 96813
(21.3077429000, -157.8625841000)",,,
DFS Waikiki Galleria,The Charger is located at Level 5B,Oahu,96815,Free,$3/30 Minutes,DFS Waikiki Galleria,9:00am-11:00pm,3,Parking fees may apply.,3,Free,AeroVironment,2,"330 Royal Hawaiian Avenue
Honolulu, HI 96815
(21.2803530000, -157.8288070000)",,,
Embassy Suites Waikiki,Valet,Oahu,96815,Free,"$6.00/4 hours with restaurant validation, $3.00/half hour thereafter.  $30/day for overnight guests (in/out parking). ",Embassy Suites Waikiki,24/7,2,Parking fees may apply.,2,Free,AeroVironment,2,"201 Beach Walk Street
Honolulu, HI 96815
(21.2791170000, -157.8317518000)",,,
Enterprise Rent A Car Honolulu Airport,EV Charging Station is on the side of the building next to the pillars.,Oahu,96818,TBD,Free,Enterprise Rent A Car Honolulu Airport,6:00am-10:30pm,4,Restricted to customers.  4 hour limit on EV charging.,2,Free,OpConnect,2,"3255 Aolele St
Honolulu, HI 96818
(21.3333209000, -157.9151068000)",,,
"Enterprise Rent-a-Car, Kaneohe",In front of the Enterprise office at the intersection of Kahuhipa St and Alaloa St.,Oahu,96744,TBD,Free,"Enterprise Rent-a-Car, Kaneohe","Mon-Fri 8:00am-6:00pm, Sat 9:00am-12:00pm",3,Restricted to customers.   4 hour limit on EV Charging.,3,Free,OpConnect,2,"46-003 Alaloa St.
Kaneohe, HI 96744
(21.4180864000, -157.8064650000)",,,
"Enterprise Rent-a-Car, Waikiki",EV Charging station is in the back of the lot.,Oahu,96815,TBD,Free,"Enterprise Rent-a-Car, Waikiki",7:00am-8:00pm,4,Restricted to customers.  4 hour limit on EV Charging. ,4,Free,OpConnect,2,"151 Kaiulani St.
Honolulu, HI 96815
(21.2772166000, -157.8247285000)",,,
Ewa Town Center,Next to Blockbusters and Starbucks building facing Fort Weaver Rd,Oahu,96706,TBD,Free,Ewa Town Center,7:00am-9:00pm,2,    FOB key required to activate charging station.4 hour limit on EV charging.  Parking fees may apply.,2,Free,OpConnect,2,"91-1401 Ft Weaver Rd
Honolulu, HI 96706
(21.3338730000, -158.0244260000)",,,
Kapolei Commons,In the front parking near Down to Earth,Oahu,96707,TBD,Free for customers,Kapolei Commons,7:00am-9:00pm,2,4 hour limit.  Parking fees may apply.,2,Free,OpConnect,2,"4450 Kapolei Parkway
Kapolei, HI 96707
(21.3314449000, -158.0924594000)",,,
Hilton Hawaiian Village,On the 2nd floor of the parking garage across from Kalia Tower,Oahu,96814,TBD,"$24.00 fee for overnight guests, $30.00 valet services. Visitors fee $8.00/hour. Validations offered at any food and beverage facility within the hotel",Hilton Hawaiian Village,24/7,4,  FOB key required to activate charging station.4 hour limit on EV charging.  Parking fees may apply.,4,Free,OpConnect,2,"2003 Kalia Rd.
Honolulu, HI 96814
(21.2836659000, -157.8377792000)",,,
Hilton Waikiki Prince,Valet Only,Oahu,96815,Free,"$3/3 hours with Restaurant Validation, Registered Guests $25/night, Special Functions $15",Hilton Waikiki Prince,24/7,2,Parking fees may apply.,2,Free,AeroVironment,2,"2500 Kuhio Ave
Honolulu, HI 96815
(21.2752460000, -157.8218630000)",,,
HMSA Center,On ground floor of parking lot,Oahu,96814,TBD,"0-30 minutes $1.50, each additional 30 minute $1.50, max $30",HMSA Center,"Mon-Thurs 7:00am-12:00am, Fri 7:00am-2:00am, Sat 3:00pm-2:00pm, Sun 9:00am-12:00am",2,   FOB key required to activate charging station. 4 hour limit on EV charging.  Parking fees may apply.,2,Free,OpConnect,2,"818 Keeaumoku St.
Honolulu, HI 96814
(21.2964890000, -157.8413107000)",,,
Hokua Condominium,On ground level of parking garage near loading dock,Oahu,96814,TBD,Free,Hokua Condominium,6:00am-2:00am,2,  FOB key required to activate charging station.4 hour limit on EV charging.  Parking fees may apply.,2,Free,OpConnect,2,"1288 Ala Moana Blvd
Honolulu, HI 96814
(21.2923950000, -157.8499570000)",,,
Holiday Inn Beachcomber,Valet Only,Oahu,96815,Free,$30.00/24hours. $15.00/24hours for HI residents.$3.50/half hour,Holiday Inn Beachcomber,24/7,1,Parking fees may apply.,1,Free,AeroVironment,2,"2300 Kalakaua Ave
Honolulu, HI 96815
(21.2782519000, -157.8273370000)",,,
Kahala Mall,Across from Whole Foods on the 1st floor,Oahu,96816,Free,Free,Kahala Mall,"Mon-Sat 10:00am-9:00pm, Sun 10:00am-5:00pm",2,,2,Free,Volta,2,"4211 Waialae Ave
Honolulu, HI 96816
(21.2773900000, -157.7860700000)",,,
Kaimuki Shopping Center,Outdoor open lot,Oahu,96816,Free,Free for customers,Kaimuki Shopping Center,24/7,2,Parking fees may apply.,1,Free,AeroVironment,2,"3221 Waialae Ave
Honolulu, HI 96816
(21.2866121000, -157.8077935000)",,,
Kaiser Permanente Mapunapuna,One floor outdoor facility,Oahu,96819,Free,1st 3 hours free.  $1 every hour thereafter.,Kaiser Permanente Mapunapuna,"Mon-Fri 8:00am-5:00pm, Sat 8:00am-12:00pm",1,Parking fees may apply.,1,Free,Volta,2,"2828 Paa Street
Honolulu, HI 96819
(21.3458841000, -157.8946895000)",,,
Kaiser Permanente Moanalua Medical Center,2nd floor.,Oahu,96819,Free,1st 3 hours free.  $1 every hour thereafter.,Kaiser Permanente Moanalua Medical Center,Mon-Fri 8:30am-5:00pm,1,Parking fees may apply,1,Free,Volta,2,"3288 Moanalua Road
Honolulu, HI 96819
(21.3633930000, -157.8995110000)",,,
Kaiser Permanente Waipio,Enter the parking lot and continue towards the Ewa side of the main building. One pedestal charging station is next to the handicap stalls on the building side.,Oahu,96797,Free,Free for Employees and Patients,Kaiser Permanente Waipio,24/7,1,Parking fees may apply.,1,Free,Volta,2,"94-1480 Moaniani St.
Waipahu, HI 96797
(21.4257840000, -157.9971430000)",,,
Pearlridge Shopping Center (downtown),Downtown parking lot fronting the entrance of Cold Stone Creamery,Oahu,96701,Free,Free for customers,Pearlridge Shopping Center (downtown),"Mon-Sat 10:00am-9:00pm, Sun 10:00am-6:00pm",1,Parking fees may apply,1,Free,Volta,2,"98-1005 Moanalua Rd (downtown)
Aiea, HI 96701
(21.3850039000, -157.9403153000)",,,
Kapolei Shopping Center,Between Longs and Safeway in front of Subway,Oahu,96707,TBD,Free for customers,Kapolei Shopping Center,8:00am-10:00pm,2,4 hour limit. Parking rates may apply. ,2,Free,OpConnect,2,"590 Farrington Hwy
Kapolei, HI 96707
(21.3390928000, -158.0794408000)",,,
Keola Lai Condominium,Public charge spot on 1st floor of parking garage. Guest spot located on 3rd floor,Oahu,96813,TBD,Free for Guests,Keola Lai Condominium,24/7,4,  FOB key required to activate charging station. 4 hour limit. Parking rates may apply. ,2,Free,OpConnect,2,"600 Queen St
Honolulu, HI 96813
(21.3016900000, -157.8574420000)",,,
King Windward Nissan,"EV Charger is located in front of the dealership, all the way to the left.",Oahu,96744,Free,Free,King Windward Nissan,"7:00am-8:00pm, by reservation",1,Restricted to Leafs only. Parking rates may apply ,1,Free,AeroVironment,2,"45-568 Kamehameha Hwy
Kaneohe, HI 96744
(21.3991720000, -157.7991490000)",,,
Laie Village Center,In front parking lot,Oahu,96762,TBD,Free,Laie Village Center,8:00am-7:00pm,2,  FOB key required to activate charging station. 4 hour limit.  Parking fees may apply.,2,Free,OpConnect,2,"55-510 Kamehameha Hwy
Laie, HI 96762
(21.6467349000, -157.9217687000)",,,
Longs Drugs,Parking stall in front of entrance,Oahu,96734,Free for up to 2 hours,Free,Longs Drugs,8:00am-9:00pm,2,2 hour limit on charging,2,Free,Volta,2,"609 Kailua Road
Kailua, HI 96734
(21.3936280000, -157.7421430000)",,,
Mark’s Garage,3rd floor of parking garage,Oahu,96813,TBD,$10.00 Flat rate,Mark’s Garage,"Mon 5:45am-10:00pm, Tue 10:45am-12:00am, Wed-Fri 5:45am-2:00am, Sat 7:00am-2:00am",2,  FOB key required to activate charging station. 4 hour limit. Parking rates may apply.,1,Free,OpConnect,2,"22 S. Pauahi St.
Honolulu, HI 96813
(21.3112029000, -157.8609991000)",,,
Moanalua Shopping Center,In front of Subway,Oahu,96818,TBD,Free,Moanalua Shopping Center,7:00am-9:00pm,2,4 hour limit. Parking rates may apply. ,2,Free,OpConnect,2,"930 Valkenburgh St
Pearl City, HI 96818
(21.3413033000, -157.9294558000)",,,
New City Nissan,3 charging stalls are located in front right of the building.,Oahu,96819,Free for all Nissan Leafs,Free,New City Nissan,6:30am-8:00pm,3,Restricted to Leafs only. ,3,Free,AeroVironment,2,"2295 North King Street
Honolulu, HI 96819
(21.3355002000, -157.8825108000)",,,
Nimitz Center,Charge Spot is located at Enterprise Rent-a-Car parking in rear of garage,Oahu,96817,TBD,First 2-hours free for customers,Nimitz Center,8:00am-9:00pm,2,  Restricted to Enterprise Fleet EVs only. 4 hour limit. Parking fees may apply. ,2,Free,OpConnect,2,"1130 North Nimitz Hwy
Honolulu, HI 96817
(21.3188507000, -157.8745459000)",,,
Ohana Honolulu Airport Hotel,located to second building,Oahu,96815,Free,"25$ guest/overnight, $12 for military and HI residents with ID, no charge for day",Ohana Honolulu Airport Hotel,24/7,2,Need attendant to activate Charger. Parking rates may apply,2,Free,AeroVironment,2,"3401 N. Nimitz Hwy,
Honolulu, HI 96815
(21.3372565000, -157.9179480000)",,,
Ohana Waikiki East,One charger is located on the first floor near entrance at 150 Kaiulani Ave.  A second charger is in front of the corporate office (the same building) on 2375 Kuhio Ave.,Oahu,96815,Free,"Guests $25.00 overnight. HI residents $12.00 overnight, $7.00 flat rate available on Mondays between 5am-12pm. First 3 hours for free with Dukes validation, 3$/half hour",Ohana Waikiki East,24/7,2,Restricted use to Guests.  Need FOB key to activate Charger in self-parking. Parking rates may apply ,2,Free,AeroVironment,2,"150 Kaiulani Avenue
Honolulu, HI 96815
(21.2778509000, -157.8250470000)",,,
Ohana Waikiki Malia,"2nd level, at entrance",Oahu,96815,Free,"Guests $25.00 overnight, HI residents $10.00. 1hour free with validation from Ihop or Rivals bar with a purchase of $20.00 or more. 3$/half hour.",Ohana Waikiki Malia,24/7,2,See attendant for FOB key to activate charger. Parking fees may apply.,2,Free,AeroVironment,2,"2211 Kuhio Avenue
Honolulu, HI 96815
(21.2809770000, -157.8282570000)",,,
Ohana Waikiki West,"Self park, lobby level",Oahu,96815,Free,Guests $25.00 overnight . HI residents $10.00 over night. $3.00/half hour,Ohana Waikiki West,24/7,2,Need attendant to activate Charger. Parking fees may apply. ,2,Free,AeroVironment,2,"2330 Kuhio Avenue
Honolulu, HI 96815
(21.2789430000, -157.8250250000)",,,
Outrigger Reef,"Self-Park in garage outside valet, basement level",Oahu,96815,"Free until further notice,  fee amount TBD","$25.00 overnight, $10.00 HI residents, but rate will go up on 12/22/2012 (TBA)",Outrigger Reef,24/7,1,Parking fees may apply,1,Free,AeroVironment,2,"2169 Kalia Road
Honolulu, HI 96815
(21.2786974000, -157.8325599000)",,,
Outrigger Waikiki,"Basement of garage, valet",Oahu,96815,Free,$35.00 for guests and HI residents overnight. $4.00/half hour,Outrigger Waikiki,24/7,1,Parking fees may apply ,1,Free,AeroVironment,2,"2335 Kalakaua Avenue
Honolulu, HI 96815
(21.2772136000, -157.8272715000)",,,
Pearlridge Shopping Center (uptown),Uptown parking lot fronting the main food court entrance,Oahu,96701,Free,Free for customers,Pearlridge Shopping Center (uptown),"Mon-Sat 10:00am-9:00pm, Sun 10:00am-6:00pm",1,Parking fees may apply,1,Free,Volta,2,"98-1005 Moanalua Rd (uptown)
Aiea, HI 96701
(21.3871057000, -157.9106318000)",,,
Polynesian Cultural Center,"Enter main entrance, stay to right on circle, take a right, drive 15 meters and the Charge Spot will be on your left in the front row",Oahu,96762,TBD,"$8/Day, cash only",Polynesian Cultural Center,11:00am-10:00pm,2,  FOB key required to activate charging station. 4 hour limit. Parking fees may apply.,2,Free,OpConnect,2,"55-370 Kamehameha Hwy
Laie, HI 96762
(21.6388430000, -157.9192780000)",,,
Queen’s Physician Office Building,"1 Charger at POB 1 lot on Lusitaina St. Main entry Makai side level 3, 2nd Charger at Miller St. garage across emergency room level B2 near cashiers booth",Oahu,96813,"Free until further notice, anticipated fee will be $2.00/hour",Patients $1/half hour max 5$. Visitors can get validation $5 flat rate.,Queen’s Physician Office Building,24/7,6,"Chargers are available for use through self-parking or Valet, the Valet must activate Charger.  Parking fees may apply.",3,Free,ChargePoint,2,"1380 Lusitana street
Honolulu, HI 96813
(21.3083800000, -157.8531400000)",,,
Sheraton Waikiki,3rd floor parking garage,Oahu,96815,TBD,$10.00 resort fee included for registered guests to self park. Guests visiting for the day can get a validation at the hotel.,Sheraton Waikiki,24/7,6,Charging stations free with parking validation.  4 hour limit on charging.  Need FOB key from front desk to activate Charging station.  Parking fees may apply.   ,3,Free,OpConnect,2,"2255 Kalakaua Ave
Honolulu, HI 96815
(21.2780995000, -157.8298294000)",,,
Stadium Marketplace,Between office max and checkers,Oahu,96818,TBD,Free,Stadium Marketplace,7:00am-9:00pm,4,   FOB key required to activate charging station.4 hour limit.  Parking fees may apply.,4,Free,OpConnect,2,"4561 Salt Lake Blvd
Honolulu, HI 96818
(21.3650062000, -157.9305367000)",,,
The Pan Am Building,"2nd floor, up the ramp take 2 left turns",Oahu,96814,"1st 2 hours free, $5 every additional hour",$2.00 for every half hour. Some offices offer validations,The Pan Am Building,"Mon-Fri 6:00am-10:00pm, Sat 7:00am-5:00pm, Sun closed",1,"First 2 hours of charging are free, $5 every additional hour.  Use your smart phone to charge by credit card at the Charger, instructions on the screen.  Call 1-800 number to sign up for a card.  Parking fees may apply.",1,Free,SemaConnect,2,"1600 Kapiolani Boulevard
Honolulu, HI 96814
(21.2920870000, -157.8391500000)",,,
TOPA Financial Center,Parking garage basement level,Oahu,96813,TBD,"$3.25/half hour, Some offices offer validations",TOPA Financial Center,5:00am-8:00pm,4,  FOB key required to activate charging station. 4 hour limit. Parking fees may apply.,4,Free,OpConnect,2,"700 Bishop St.
Honolulu, HI 96813
(21.3077669000, -157.8635100000)",,,
Town Center of Mililani,In front of Baskin Robins,Oahu,96789,TBD,Free,Town Center of Mililani,7:00am-10:00pm,2, 4 hour limit.  Parking fees may apply.,2,Free,OpConnect,2,"95-1249 Meheula Pkwy
Mililani, HI 96789
(21.4529378000, -158.0076693000)",,,
Turtle Bay Resort,Near beach access parking,Oahu,96731,TBD,Parking fee included for registered guests. No charge for visitors parked at the public beach access stalls.$15.00/day for Valet services,Turtle Bay Resort,24/7,6,  FOB key required to activate charging station.4 hour limit. Parking fees may apply.,6,Free,OpConnect,2,"57-091 Kamehameha Hwy
Kahuku, HI 96731
(21.7048446000, -157.9983759000)",,,
University of Hawaii Faculty Housing,Charge Spot located approximately 200 yards on the left.,Oahu,96822,TBD,Free for EV drivers,University of Hawaii Faculty Housing,24/7,1,  FOB key required to activate charging station.4 hour limit. Free parking for EV drivers.,1,Free,OpConnect,2,"3029 Lowrey Avenue
Honolulu, HI 96822
(21.3081620000, -157.8068970000)",,,
University of Hawaii Lower Campus Parking Garage ,"On first floor, section F. Arena Parking",Oahu,96822,TBD,Free parking for EV Drivers,University of Hawaii Lower Campus Parking Garage ,5:00am-12:00am UH Permit Holders Access: 24/7,4,  FOB key required to activate charging station.4 hour limit. Free parking for EV drivers.,4,Free,OpConnect,2,"2500 Campus Rd
Honolulu, HI 96822
(21.2978800000, -157.8208100000)",,,
USA Hawaii Credit Union,On left after entering parking garage,Oahu,96817,TBD,Free,USA Hawaii Credit Union,"Mon-Fri 7:00am-7:00pm, Sat 7:00am-2:30pm",4,  FOB key required to activate charging station.4 hour limit. Parking fees may apply.,4,Free,OpConnect,2,"1226 College Walk
Honolulu, HI 96817
(21.3155430000, -157.8621410000)",,,
Waikele Center,Located by Gap and Brooks Brothers.,Oahu,96797,Free,Free,Waikele Center,24/7,2,Call security to activate charger.  Parking fees may apply.,2,Free,AeroVironment,2,"94-849 Lumiaina Street
Waipahu, HI 96797
(21.3949100000, -158.0141700000)",,,
Ala Moana Hotel,Basement floor by the elevator in the self parking lot.,Oahu,96814,Free,"$6 with Restaurant Validation.  $20/day Self Park, $25/day Valet.",Ala Moana Hotel,24/7,1,Parking fees may apply,1,Free,AeroVironment,2,"410 Atkinson
Honolulu, HI 96814
(21.2901711000, -157.8393701000)",,,
Waikiki Beach Marriott,"One Charger is on 3rd floor self parking garage, second Charger is in valet",Oahu,96815,Free,"$32.00 resort fee includes parking for registered guests. $37.00 valet .services, $4.00/half hour. Validations are offered at the hotel poolside bar & certain restaurants for 2-4 hours",Waikiki Beach Marriott,24/7,2,After parking use nearby phone and contact security who will use a motion key to activate the charger. Parking fees may apply. ,2,Free,AeroVironment,2,"2552 Kalakaua Avenue
Honolulu, HI 96815
(21.2728669000, -157.8231051000)",,,
Waikiki Parc Hotel & Halekulani Hotel,On the 2nd floor.  Drive up the ramp after you pass the parking booth.,Oahu,96815,Free,Day visitors $3/20 minutes.  Overnight guest packages include parking. $20/day without package. $35/day for valet services.,Waikiki Parc Hotel & Halekulani Hotel,24/7,2,The two hotels share this parking lot.  Green Car rents out electric and hybrid vehicles from the hotel.  Registered Guests with EVs can also charge.  Parking fees may apply.,2,Free,Volta,2,"2233 Helumoa Rd
Honolulu, HI 96815
(21.2783056000, -157.8307087000)",,,
Waikiki Sand Villa,Valet,Oahu,96815,Free to Hotel Guests - Non Guests/Bar Patrons $10.00 per session,$20.94 Overnight. $10.00/half hour. Validations offered from facilities within hotel,Waikiki Sand Villa,24/7,1,Free charging for hotel guests - Non-guests/bar patrons charge fee is a flat $10/session.  Parking fees may apply.,1,Free,Schneider Electric,2,"2375 Ala Wai Blvd
Honolulu, HI 96815
(21.2788420000, -157.8231580000)",,,
Waikiki Trade Center,EV Charging Stations are located on the 6th floor,Oahu,96815,Free,"$4.00/half hour, $6.00 Early-bird special (6am-9am, $11.00 regular flat rate (5pm), Validations offered within the building",Waikiki Trade Center,24/7,4,See Parking Management Office for FOB key to activate the Charger.  Parking fees may apply.,2,Free,AeroVironment,2,"2255 Kuhio Avenue
Honolulu, HI 96815
(21.2797361000, -157.8267701000)",,,
Water Front Plaza,The Charger is located in the basement level of the parking garage just off the Waterfront Plaza aka Restaurant Row Pohukaina Street entrance.  Our signs and parking lot stencils are being fabricated,Oahu,96813,"1st 2 hours free, $5 every additional hour","$3 every 30 minutes, 1.5-2.5 hours free with Validation from various Restaurant",Water Front Plaza,24/7,1,"Charge fee is 2 hours free, $5 every additional hour.  A 2 hour limit may be enforced when demand rises.  Use your smart phone to charge by credit card at the charger, instructions on the screen.  Parking fees may apply.",1,Free,SemaConnect,2,"500 Ala Moana Blvd.
Honolulu, HI 96813
(21.3013068000, -157.8623317000)",,,
Whole Foods Kailua,Parking stall in front of entrance,Oahu,96734,Free,Free,Whole Foods Kailua,7:00am-10:00pm,2,2 hour limit on EV charging.  Parking fees may apply.,2,Free,Volta,2,"629 Kailua Rd Suite #100
Kailua, HI 96734
(21.3941700000, -157.7428400000)",,,
Fasi Civic Center Parking Structure,Public parking entrance is on Alapai Street and S. Beretania Street. Follow blue signs to Charger.,Oahu,96813,Free,Free for EV Drivers,Fasi Civic Center Parking Structure,6:00am-12:00am,1,Activate Charger with ChargePoint Network card or call the number listed on the front of the C1harger for access. Parking fees may apply.,1,Free,ChargePoint,2,"650 S. King Street
Honolulu, HI 96813
(21.3041040000, -157.8550490000)",,,
Honolulu Zoo Parking Lot,Entrance to parking lot is on Kapahulu.  Follow blue signs to Charger.,Oahu,96815,Free,Free for EV Drivers,Honolulu Zoo Parking Lot,6:00am-12:00am,1,Activate Charger with ChargePoint Network card or call the number listed on the front of the Charger for access.  Parking fees may apply.,1,Free,ChargePoint,2,"151 Kapahulu Avenue
Honolulu, HI 96815
(21.2716382000, -157.8213834000)",,,
Neal Blaisdell Center Parking Structure,S. King Street/Victoria street.  Follow blue signs to Charger.,Oahu,96814,Free,Free for EV Drivers,Neal Blaisdell Center Parking Structure,6:00am-12:00am,1,Free parking for EV drivers.  Activate charger with ChargePoint Network card or call the number listed on the front of the charger for access. ,1,Free,ChargePoint,2,"777 Ward Avenue
Honolulu, HI 96814
(21.2994340000, -157.8503780000)",,,
Smith-Beretania Parking Structure,Entrance on Beretania Street between Nuuanu Avenue and Smith Street.  Follow blue signs to Charger.,Oahu,96817,Free,Free for EV Drivers,Smith-Beretania Parking Structure,6:00am-12:00am,1, Free parking for EV Drivers.  Activate Charger with ChargePoint Network card or call the number listed on the front of the Charger for access.  Parking fees may apply.,1,Free,ChargePoint,2,"1170 Nuuanu
Honolulu, HI 96817
(21.3119549000, -157.8606255000)",,,
Historic County Building,2 public chargers located on the Eiwa Street side of the parking lot. Between the County Building and the Museum,Kauai,96766,Paid,Free for EV Drivers,Historic County Building,Business Hours,2,Charging fee is $2/hour.  4 hour limit.  Parking fees may apply.,2,Paid,AeroVironment,2,"4369 Rice Street
Lihue, HI 96766
(21.9739800000, -159.3669600000)",,,
Walmart,Top of row 2. close to garden section.,Hawaii,96720,Blink Plus: $1.00/hour.  Blink Basic: $1.50/hour.  Blink Guest: $2.00/hour,Free,Walmart,24/7,1,,1,Paid,Blink,2,"325 E Makaala St
Hilo, HI 96720
(19.6999700000, -155.0619600000)",,,
Lihue Civic Center-Piikoi Building,1 charger is located on the east side of the building and 2 chargers are located at the south entrance (Rice Street side) of the building,Kauai,96766,"$2.00/hour, up to 4 hours",Free for EV Drivers,Lihue Civic Center-Piikoi Building,24/7,3,Charging fee is $2/hour.  4 hour limit. Free parking for EV drivers.,3,Paid,AeroVironment,2,"4444 Rice Street
Lihue, HI 96766
(21.9750959000, -159.3691415000)",,,
Walmart,Near front entrance.,Oahu,96707,,,Walmart,24/7,1,Parking fees may apply.,1,Paid,Blink,2,"91-600 Farrington Hwy
Kapolei, HI 96707
(21.3398400000, -158.0762200000)",,,
Hawaii State Capitol,"Basement Parking Garage, Entrance off Punchbowl",Oahu,96813,Paid,Public fee $1.00/hour within a 2-hour maximum,Hawaii State Capitol,"4:00am. to 6:30pm Mon-Fri, 6:00am to 2:00pm Saturdays",1,Charging fee is $2.00/hour.  4 hour limit.  Parking fees may apply.,1,Paid,Volta,2,"415 South Beretania St.
Honolulu, HI 96813
(21.3077570000, -157.8573020000)",,,
Honolulu International Airport,"In regular public parking lot in between interisland and main parking structures, 1st floor",Oahu,96819,Flat $7/session,$15.00/day. $3.00/2hours,Honolulu International Airport,24/7,1,Charging fee is a flat $7/session.  Parking fees may apply,1,Paid,Recharge Power,2,"300 Rodgers Boulevard
Honolulu, HI 96819
(21.3326020000, -157.9190477000)",,,
Iolani School,Guest Stall,Oahu,96826,$2/hour,Free,Iolani School,"9:00am-3:00pm the lot is reserved for school staff, after 3:00pm the lot is open to those attending special events at Iolani",2,Restricted to guests of Iolani.  Parking fees may apply.,2,Paid,AeroVironment,2,"563 Kamoku Street
Honolulu, HI 96826
(21.2846790000, -157.8239320000)",,,
5A Rent A Space Business Services Center,Charging station located next to the sidewalk across the parking lot from Ohana Taco.,Maui,96761,$2/hour.  Credit Card required.,Free,5A Rent A Space Business Services Center,24/7,1,Charging fee is $2/hour.  Credit Card required to use this charge spot.  Parking fees may apply.,1,Paid,Schneider Electric,2,"3600 Lower Honoapiilani Road
Lahaina, HI 96761
(20.9526760000, -156.6859930000)",,,
Ka`ahumanu Hale parking Garage  First Circuit Court,"Basement floor, first stall, clearly marked",Oahu,96813,Paid,Free for EV drivers,Ka`ahumanu Hale parking Garage  First Circuit Court,7:00am-5:00pm,1,Charging fee is $2/hour.  4 hour limit. Free parking for EV drivers.,1,Paid,Volta,2,"564 Pohukaina
Honolulu, HI 96813
(21.3023000000, -157.8613170000)",,,
Walmart,First stall in front of the store.,Kauai,96766,Blink Plus: $1.00/hour.  Blink Basic: $1.50/hour.  Blink Guest: $2.00/hour,,Walmart,24/7,1,Parking fees may apply.,1,Paid,Blink,2,"3-3300 Kuhio Hwy
Lihue, HI 96766
(21.9825200000, -159.3653348000)",,,
Elleair Golf Club,Visit the Pro Shop or restaurant & attendant will give you access.,Maui,96753,$12 flat fee per session,Free,Elleair Golf Club,During Golfing hours: 6:30 am to 6:00 pm Mon-Sun and Restaurant hours:  8:00am to 10:00 pm. Closed after 10:00 pm.,1,Charging fee is a flat $12/Session.  Parking fees may apply.,1,Paid,AeroVironment,2,"1345 Piilani Highway
Kihei, HI 96753
(20.7404150000, -156.4429640000)",,,
Aloha Petroleum Kuulwi-Kailua Shell,Special key available in the store.,Oahu,96734,$6/Session,Free,Aloha Petroleum Kuulwi-Kailua Shell,24/7,1,,1,Paid,AeroVironment,3,"434 Kuulei Rd
Kailua, HI 96734
(21.3948651000, -157.7435142000)",,,
Walmart,First parking spot closest to the entrance.,Oahu,96782,Blink Plus: $1.00/hour.  Blink Basic: $1.50/hour.  Blink Guest: $2.00/hour,,Walmart,24/7,1,Parking fees may apply.,1,Paid,Blink,2,"1131 Kuala Street
Pearl City, HI 96782
(21.3972341000, -157.9744577000)",,,
Hyatt Regency Maui,"In Lahaina parking area, take a left turn towards back area, EV station will be directly on your right",Maui,96761,Paid,"Free for Restaurant Guests with validation.  $14/Day for Self-Parking, $5/Valet",Hyatt Regency Maui,24/7,2,$3.50/hour. 4 hour limit.  Pay with Credit Card at charging station.  Parking fees may apply.,1,Paid,Pep Stations,2,"200 Nohea Kai Drive
Lahaina, HI 96761
(20.9126700000, -156.6922010000)",,,
Double Tree by Hilton Alana Waikiki Hotel,Valet,Oahu,96815,Flat $5/Session,Subject to Valet Rates,Double Tree by Hilton Alana Waikiki Hotel,24/7,2,Charge fee is a flat $5/session.  Green Car rents out electric and hybrid vehicles from the hotel.  Registered Guests with EVs can also charge.  Must Valet to charge EV.  Parking fees may apply.,2,Paid,Blink,2,"1956 Ala Moana Blvd
Honolulu, HI 96815
(21.2857580000, -157.8340547000)",,,
Walmart,"Enter roof parking lot via ramp behind the store, charger is located on the farthest left side of the lot near the elevator.",Oahu,96797,Blink Plus: $1.00/hour.  Blink Basic: $1.50/hour.  Blink Guest: $2.00/hour,,Walmart,24/7,1,Parking fees may apply.,1,Paid,Blink,2,"94-595 Kupuohi St
Waipahu, HI 96797
(21.3949810000, -158.0321930000)",,,
Marriott Kauai Lagoons,"Outside building B, 20 stalls down from the front desk.",Kauai,96766,,,Marriott Kauai Lagoons,24/7,1,Parking fees may apply. Restricted to hotel guests. Charge fees are charged to the room.,1,Paid,AeroVironment,2,"3325 Holokawelu Way
Lihue, HI 96766
(21.9811111000, -159.3711111000)",,,
Kapiolani Medical Center,The chargers are located on the 2nd floor and 8th floor.  Stalls are marked.,Oahu,96826,$2/hour,Parking fees may apply,Kapiolani Medical Center,24/7,4,,2,Paid,Pep Stations,2,"1319 Punahou Street
Honolulu, HI 96826
(21.2999200000, -157.8345300000)",,,
Kakaako Piano Lot Parking Facility,"Next to Children’s Discovery Center, right off Ahui St. Ewa side of the lot",Oahu,96813,Paid,"Free for EV Drivers while Charging.  $2/2 hours, 2-10 hours $3, All day is $5",Kakaako Piano Lot Parking Facility,24/7,1,"Charging fee is $1/session, plus $1/hour. Free parking for EV Drivers while Charging.  DRIVERS MUST MOVE THEIR EV OUT OF CHARGING STATION SPOT WHEN CHARGING IS COMPLETE.",1,Paid,Shorepower,2,"160 Ahui Street
Honolulu, HI 96813
(21.2934480000, -157.8605849000)",,,
Kuakini Medical Center,Entrance first floor,Oahu,96817,,parking fees may apply,Kuakini Medical Center,24/7,1,,1,Paid,Eaton,2,"347 N Kuakini St
Honolulu, HI 96817
(21.3210700000, -157.8567700000)",,,
Green Energy Outlet,Green spot for EV Charging in front of lot.  Other Chargers available in garage,Oahu,96813,,Free,Green Energy Outlet,"8:00am-5:00pm Mon-Fri, 8:00am-1:00pm Sat, or available 24/7 with a Charge Card",3,"Charging fee is $4.00 per session plus $2.00/30 minutes.  The ChargePoint Charger has 2 ports, one is outside and available 24/7.  You can pay inside during operating hours, or you can use a Charge Card.  The Tesla Charger is available in the garage only during business hours.  Parking fees may apply.",2,Paid,"ChargePoint, Tesla",2,"575 Cooke Street
Honolulu, HI 96813
(21.2994929000, -157.8572600000)",,,
Maui Memorial Medical Center,Two designated EV parking spaces in the far left of the handicapped parking in the row in front of the ER entrance (facing west Maui mountains).,Maui,96793,$15/session,Free,Maui Memorial Medical Center,24/7,2,Charging fee is a flat $15/session.  4 hour limit.  Parking fees may apply.,2,Paid,AeroVironment,2,"221 Mahalani Street
Wailuku, HI 96793
(20.8848470000, -156.4894510000)",,,
Hawaii Convention Center,"In parking structure, Aisle B next to pedestrian walkway",Oahu,96815,$2.00/hour,$10,Hawaii Convention Center,Varies by event.,1,Charging fee is $2/hour.  Parking fees may apply.,1,Paid,Volta,2,"1801 Kalakaua Ave
Honolulu, HI 96815
(21.2898140000, -157.8359200000)",,,
Kapolei Judiciary State Ownership,Enter the parking lot and continue to the rear entrance of the building. Two charging stations are located next to the loading docks.,Oahu,96707,"$2.00/hour, up to 4 hours",Free for EV drivers,Kapolei Judiciary State Ownership,7:00am-5:00pm,2,Charging fee is $2/hour.  4 hour limit. Free parking for EV drivers. ,2,Paid,Volta,2,"4675 Kapolei Pkwy
Kapolei, HI 96707
(21.3277116000, -158.0859761000)",,,
Walmart,"First stall closest to the building, Row 3 ",Hawaii,96740,Blink Plus: $1.00/hour.  Blink Basic: $1.50/hour.  Blink Guest: $2.00/hour,,Walmart,24/7,1,Parking fees may apply. ,1,Paid,Blink,2,"325 Makaala St
Kailua Kona, HI 96740
(19.6405556000, -155.9955556000)",,,
Walmart,In the back by the garden center,Maui,96732,Blink Plus: $1.00/hour.  Blink Basic: $1.50/hour.  Blink Guest: $2.00/hour,Free,Walmart,24/7,1,Parking fees may apply.,1,Paid,Blink,2,"101 Pakaula Street
Kahului, HI 96732
(20.8779003000, -156.4558094000)",,,
Walmart,Level 1 Section 02 of the parking garage.,Oahu,96813,Blink Plus: $1.00/hour.  Blink Basic: $1.50/hour.  Blink Guest: $2.00/hour,,Walmart,24/7,2,Parking fees may apply.  ,1,Paid,Blink,2,"700 Keeaumoku Street
Honolulu, HI 96813
(21.2949185000, -157.8419603000)",,,
Walmart,First parking spot closest to the entrance.,Hawaii,96740,Blink Plus: $1.00/hour.  Blink Basic: $1.50/hour.  Blink Guest: $2.00/hour,,Walmart,24/7,1,Parking fees may apply.,1,Paid,Blink,2,"75-1015 Henry Street
Kailua Kona, HI 96740
(19.6454670000, -155.9902870000)",,,
Aloha Island Mart Kahala,In the parking lot.,Oahu,96816,$6/Session,,Aloha Island Mart Kahala,24/7,1,Retrieve a FOB key with your drivers license from inside the store to activate the charging station. EV drivers can park for 35 minutes.,1,Paid,AeroVironment,3,"4339 Waialae Ave
Honolulu, HI 96816
(21.2778191000, -157.7842870000)",,,
Aloha Island Mart Waipio-Gentry,In the parking lot.,Oahu,96797,$6/Session,Free,Aloha Island Mart Waipio-Gentry,24/7,1,Retrieve a FOB key with your drivers license from inside the store to activate the charging station.   Parking fees may apply.,1,Paid,AeroVironment,3,"94-826 Ukee St
Waipahu, HI 96797
(21.4120140000, -157.9988100000)",,,